NORAD_CAT_ID,OBJECT_NAME,OBJECT_TYPE,EPOCH,MEAN_MOTION,ECCENTRICITY,INCLINATION,RA_OF_ASC_NODE,ARG_OF_PERICENTER,MEAN_ANOMALY,BSTAR,MEAN_MOTION_DOT,MEAN_MOTION_DDOT,TLE_LINE0,TLE_LINE1,TLE_LINE2,SEMIMAJOR_AXIS,PERIOD,APOGEE,PERIGEE,DECAYED
53555.0,STARLINK-4504,PAYLOAD,2023-11-13 14:12:31,15.0884419,0.0001718,53.218,266.8914,77.8733,282.2451,0.00011038,1.469e-05,0.0,0 STARLINK-4504,1 53555U 22101AE  23317.59203370  .00001469  00000-0  11038-3 0  9990,2 53555  53.2180 266.8914 0001718  77.8733 282.2451 15.08844190 68426,6917.868,95.437,540.921,538.544,0.0
53555.0,STARLINK-4504,PAYLOAD,2023-11-13 20:34:04,15.08841326,0.0001827,53.2165,265.7042,79.7142,280.4056,0.0001326,1.823e-05,0.0,0 STARLINK-4504,1 53555U 22101AE  23317.85699875  .00001823  00000-0  13260-3 0  9991,2 53555  53.2165 265.7042 0001827  79.7142 280.4056 15.08841326 69122,6917.876,95.437,541.005,538.477,0.0
53555.0,STARLINK-4504,PAYLOAD,2023-11-14 02:55:37,15.08841307,0.0001655,53.2173,264.5137,87.32,272.7981,2.7528e-05,1.5e-06,0.0,0 STARLINK-4504,1 53555U 22101AE  23318.12195658  .00000150  00000-0  27528-4 0  9997,2 53555  53.2173 264.5137 0001655  87.3200 272.7981 15.08841307 68503,6917.876,95.437,540.886,538.596,0.0
53555.0,STARLINK-4504,PAYLOAD,2023-11-14 14:03:18,15.08843043,0.0001635,53.217,262.4318,87.738,272.3799,0.00010026,1.308e-05,0.0,0 STARLINK-4504,1 53555U 22101AE  23318.58563521  .00001308  00000-0  10026-3 0  9995,2 53555  53.2170 262.4318 0001635  87.7380 272.3799 15.08843043 69232,6917.871,95.437,540.867,538.605,0.0
53555.0,STARLINK-4504,PAYLOAD,2023-11-14 20:24:51,15.08843238,0.0001741,53.2174,261.243,81.6543,278.4646,4.8159e-05,4.79e-06,0.0,0 STARLINK-4504,1 53555U 22101AE  23318.85059617  .00000479  00000-0  48159-4 0  9998,2 53555  53.2174 261.2430 0001741  81.6543 278.4646 15.08843238 69278,6917.87,95.437,540.94,538.531,0.0
53555.0,STARLINK-4504,PAYLOAD,2023-11-15 05:57:09,15.0885123,0.0001636,53.2169,259.4566,93.1695,266.9485,0.00011538,1.549e-05,0.0,0 STARLINK-4504,1 53555U 22101AE  23319.24802988  .00001549  00000-0  11538-3 0  9998,2 53555  53.2169 259.4566 0001636  93.1695 266.9485 15.08851230 68677,6917.846,95.437,540.843,538.579,0.0
53555.0,STARLINK-4504,PAYLOAD,2023-11-16 02:37:11,15.08840733,0.0001634,53.2169,255.5922,93.1747,266.9432,0.00010689,1.414e-05,0.0,0 STARLINK-4504,1 53555U 22101AE  23320.10915645  .00001414  00000-0  10689-3 0  9997,2 53555  53.2169 255.5922 0001634  93.1747 266.9432 15.08840733 68809,6917.878,95.438,540.874,538.613,0.0
53555.0,STARLINK-4504,PAYLOAD,2023-11-16 05:47:57,15.08841766,0.0001513,53.2162,254.9947,90.7925,269.3241,0.0001057,1.395e-05,0.0,0 STARLINK-4504,1 53555U 22101AE  23320.24163536  .00001395  00000-0  10570-3 0  9993,2 53555  53.2162 254.9947 0001513  90.7925 269.3241 15.08841766 69486,6917.875,95.437,540.787,538.693,0.0
53555.0,STARLINK-4504,PAYLOAD,2023-11-17 02:27:57,15.08857566,0.00016,53.2173,251.1278,108.1882,251.9285,-0.00015396,-2.739e-05,0.0,0 STARLINK-4504,1 53555U 22101AE  23321.10274870 -.00002739  00000-0 -15396-3 0  9999,2 53555  53.2173 251.1278 0001600 108.1882 251.9285 15.08857566 68958,6917.827,95.436,540.799,538.585,0.0
53555.0,STARLINK-4504,PAYLOAD,2023-11-17 19:57:13,15.08836871,0.0001597,53.2173,247.8609,108.6525,251.464,1.2198e-05,-9.4e-07,0.0,0 STARLINK-4504,1 53555U 22101AE  23321.83140121 -.00000094  00000-0  12198-4 0  9999,2 53555  53.2173 247.8609 0001597 108.6525 251.4640 15.08836871 69061,6917.89,95.438,540.86,538.65,0.0
53555.0,STARLINK-4504,PAYLOAD,2023-11-18 00:43:22,15.08820904,0.0001493,53.2173,246.9655,100.4331,259.683,0.00016396,2.321e-05,0.0,0 STARLINK-4504,1 53555U 22101AE  23322.03012625  .00002321  00000-0  16396-3 0  9996,2 53555  53.2173 246.9655 0001493 100.4331 259.6830 15.08820904 69096,6917.939,95.439,540.837,538.771,0.0
53555.0,STARLINK-4504,PAYLOAD,2023-11-18 11:51:04,15.08837323,0.0001481,53.2169,244.886,77.9258,282.19,3.6499e-05,2.93e-06,0.0,0 STARLINK-4504,1 53555U 22101AE  23322.49380255  .00000293  00000-0  36499-4 0  9996,2 53555  53.2169 244.8860 0001481  77.9258 282.1900 15.08837323 69169,6917.889,95.438,540.778,538.729,0.0
53555.0,STARLINK-4504,PAYLOAD,2023-11-18 22:58:46,15.08840449,0.0001241,53.2164,242.8042,78.8977,281.2154,6.021e-05,6.71e-06,0.0,0 STARLINK-4504,1 53555U 22101AE  23322.95747954  .00000671  00000-0  60210-4 0  9998,2 53555  53.2164 242.8042 0001241  78.8977 281.2154 15.08840449 69890,6917.879,95.438,540.603,538.886,0.0
53555.0,STARLINK-4504,PAYLOAD,2023-11-19 03:44:55,15.08844499,0.0001504,53.2167,241.9127,91.624,268.4924,0.00013372,1.841e-05,0.0,0 STARLINK-4504,1 53555U 22101AE  23323.15619490  .00001841  00000-0  13372-3 0  9990,2 53555  53.2167 241.9127 0001504  91.6240 268.4924 15.08844499 69267,6917.867,95.437,540.772,538.691,0.0
53555.0,STARLINK-4504,PAYLOAD,2023-11-20 03:35:42,15.0884087,0.0001528,53.2167,237.4517,88.2423,271.8744,0.00015006,2.101e-05,0.0,0 STARLINK-4504,1 53555U 22101AE  23324.14979794  .00002101  00000-0  15006-3 0  9992,2 53555  53.2167 237.4517 0001528  88.2423 271.8744 15.08840870 69415,6917.878,95.437,540.8,538.686,0.0
53555.0,STARLINK-4504,PAYLOAD,2023-11-20 11:32:38,15.08842057,0.0001326,53.2166,235.9648,86.2539,273.8605,9.0163e-05,1.147e-05,0.0,0 STARLINK-4504,1 53555U 22101AE  23324.48099874  .00001147  00000-0  90163-4 0  9998,2 53555  53.2166 235.9648 0001326  86.2539 273.8605 15.08842057 70121,6917.874,95.437,540.656,538.822,0.0
53555.0,STARLINK-4504,PAYLOAD,2023-11-20 22:40:20,15.08844491,0.0001545,53.2168,233.8837,85.8167,274.3001,5.7222e-05,6.23e-06,0.0,0 STARLINK-4504,1 53555U 22101AE  23324.94467767  .00000623  00000-0  57222-4 0  9996,2 53555  53.2168 233.8837 0001545  85.8167 274.3001 15.08844491 70192,6917.867,95.437,540.8,538.663,0.0
53555.0,STARLINK-4504,PAYLOAD,2023-11-21 11:23:25,15.08838116,0.0001657,53.2178,231.5046,88.5614,271.5567,5.7764e-06,-1.96e-06,0.0,0 STARLINK-4504,1 53555U 22101AE  23325.47460282 -.00000196  00000-0  57764-5 0  9998,2 53555  53.2178 231.5046 0001657  88.5614 271.5567 15.08838116 69619,6917.886,95.438,540.897,538.605,0.0
53555.0,STARLINK-4504,PAYLOAD,2023-11-22 03:17:16,15.08846751,0.0001541,53.217,228.5284,92.9049,267.212,5.5523e-05,5.96e-06,0.0,0 STARLINK-4504,1 53555U 22101AE  23326.13699693  .00000596  00000-0  55523-4 0  9995,2 53555  53.2170 228.5284 0001541  92.9049 267.2120 15.08846751 69716,6917.86,95.437,540.791,538.659,0.0
53555.0,STARLINK-4504,PAYLOAD,2023-11-22 20:46:30,15.088641,0.0001518,53.2163,225.2587,93.8172,266.2993,0.00039582,6.021e-05,0.0,0 STARLINK-4504,1 53555U 22101AE  23326.86562507  .00006021  00000-0  39582-3 0  9993,2 53555  53.2163 225.2587 0001518  93.8172 266.2993 15.08864100 70480,6917.807,95.436,540.722,538.622,0.0
53555.0,STARLINK-4504,PAYLOAD,2023-11-23 03:08:01,15.08888175,0.0001285,53.2153,224.0685,121.3539,238.7579,0.0008563,0.00013384,0.0,0 STARLINK-4504,1 53555U 22101AE  23327.13057275  .00013384  00000-0  85630-3 0  9990,2 53555  53.2153 224.0685 0001285 121.3539 238.7579 15.08888175 69862,6917.733,95.435,540.487,538.709,0.0
53555.0,STARLINK-4504,PAYLOAD,2023-11-23 22:12:39,15.08846255,0.0001264,53.2168,220.5003,101.7282,258.3852,-0.00019408,-3.376e-05,0.0,0 STARLINK-4504,1 53555U 22101AE  23327.92546171 -.00003376  00000-0 -19408-3 0  9997,2 53555  53.2168 220.5003 0001264 101.7282 258.3852 15.08846255 70640,6917.861,95.437,540.601,538.852,0.0
53555.0,STARLINK-4504,PAYLOAD,2023-11-24 02:58:49,15.08842123,0.0001092,53.2172,219.6096,75.9828,284.1285,0.00018747,2.697e-05,0.0,0 STARLINK-4504,1 53555U 22101AE  23328.12418340  .00002697  00000-0  18747-3 0  9994,2 53555  53.2172 219.6096 0001092  75.9828 284.1285 15.08842123 70011,6917.874,95.437,540.494,538.983,0.0
53555.0,STARLINK-4504,PAYLOAD,2023-11-24 22:03:28,15.08818004,0.0001472,53.2167,216.036,90.4983,269.6178,0.00033028,4.969e-05,0.0,0 STARLINK-4504,1 53555U 22101AE  23328.91908056  .00004969  00000-0  33028-3 0  9992,2 53555  53.2167 216.0360 0001472  90.4983 269.6178 15.08818004 70791,6917.948,95.439,540.831,538.794,0.0
53555.0,STARLINK-4504,PAYLOAD,2023-11-24 23:38:51,15.08819671,0.0001419,53.2165,215.7388,88.9048,271.2106,0.000192,2.767e-05,0.0,0 STARLINK-4504,1 53555U 22101AE  23328.98532084  .00002767  00000-0  19200-3 0  9993,2 53555  53.2165 215.7388 0001419  88.9048 271.2106 15.08819671 70140,6917.943,95.439,540.789,538.826,0.0
53555.0,STARLINK-4504,PAYLOAD,2023-11-25 21:54:15,15.08869653,0.0001325,53.2156,211.5835,90.0043,270.1101,0.0015267,0.00024113,0.0,0 STARLINK-4504,1 53555U 22101AE  23329.91267870  .00024113  00000-0  15267-2 0  9992,2 53555  53.2156 211.5835 0001325  90.0043 270.1101 15.08869653 70942,6917.79,95.436,540.571,538.738,0.0
53555.0,STARLINK-4504,PAYLOAD,2023-11-26 01:05:01,15.08889093,0.0001346,53.2161,210.9881,88.6353,271.4793,0.0022684,0.00036047,0.0,0 STARLINK-4504,1 53555U 22101AE  23330.04515497  .00036047  00000-0  22684-2 0  9999,2 53555  53.2161 210.9881 0001346  88.6353 271.4793 15.08889093 70303,6917.73,95.434,540.526,538.664,0.0
53555.0,STARLINK-4504,PAYLOAD,2023-11-26 20:09:39,15.08833971,0.0001323,53.2151,207.4201,105.7291,254.3847,0.0007799,0.00012144,0.0,0 STARLINK-4504,1 53555U 22101AE  23330.84004501  .00012144  00000-0  77990-3 0  9999,2 53555  53.2151 207.4201 0001323 105.7291 254.3847 15.08833971 70423,6917.899,95.438,540.679,538.849,0.0
53555.0,STARLINK-4504,PAYLOAD,2023-11-26 21:45:02,15.08833309,0.0001216,53.215,207.1228,114.3916,245.7203,0.00078581,0.00012238,0.0,0 STARLINK-4504,1 53555U 22101AE  23330.90628445  .00012238  00000-0  78581-3 0  9996,2 53555  53.2150 207.1228 0001216 114.3916 245.7203 15.08833309 71098,6917.901,95.438,540.607,538.925,0.0
53555.0,STARLINK-4504,PAYLOAD,2023-11-27 00:55:49,15.08834761,0.0001289,53.2153,206.5288,107.9997,252.1135,0.00019376,2.797e-05,0.0,0 STARLINK-4504,1 53555U 22101AE  23331.03876517  .00002797  00000-0  19376-3 0  9992,2 53555  53.2153 206.5288 0001289 107.9997 252.1135 15.08834761 71119,6917.896,95.438,540.653,538.87,0.0
